NORAD_CAT_ID,OBJECT_NAME,OBJECT_TYPE,EPOCH,MEAN_MOTION,ECCENTRICITY,INCLINATION,RA_OF_ASC_NODE,ARG_OF_PERICENTER,MEAN_ANOMALY,BSTAR,MEAN_MOTION_DOT,MEAN_MOTION_DDOT,TLE_LINE0,TLE_LINE1,TLE_LINE2,SEMIMAJOR_AXIS,PERIOD,APOGEE,PERIGEE,DECAYED
54158.0,STARLINK-5297,PAYLOAD,2024-01-29 23:14:57,15.08842807,0.0001357,53.2162,229.6687,96.6784,263.4362,7.476e-05,9.02e-06,0.0,0 STARLINK-5297,1 54158U 22141B   24029.96872568  .00000902  00000-0  74760-4 0  9990,2 54158  53.2162 229.6687 0001357  96.6784 263.4362 15.08842807 69510,6917.872,95.437,540.676,538.798,0.0
54158.0,STARLINK-5297,PAYLOAD,2024-01-30 13:33:26,15.08838445,0.0001248,53.2158,226.9898,99.5989,260.5145,1.6128e-05,-3.1e-07,0.0,0 STARLINK-5297,1 54158U 22141B   24030.56489052 -.00000031  00000-0  16128-4 0  9998,2 54158  53.2158 226.9898 0001248  99.5989 260.5145 15.08838445 69607,6917.885,95.438,540.613,538.887,0.0
54158.0,STARLINK-5297,PAYLOAD,2024-01-30 19:54:58,15.08839548,0.0001335,53.2158,225.8002,103.3238,256.7903,2.6326e-05,1.31e-06,0.0,0 STARLINK-5297,1 54158U 22141B   24030.82984952  .00000131  00000-0  26326-4 0  9997,2 54158  53.2158 225.8002 0001335 103.3238 256.7903 15.08839548 69648,6917.882,95.438,540.67,538.823,0.0
54158.0,STARLINK-5297,PAYLOAD,2024-01-30 23:05:45,15.08838562,0.0001354,53.216,225.2061,102.5376,257.5768,1.8774e-05,1.1e-07,0.0,0 STARLINK-5297,1 54158U 22141B   24030.96233025  .00000011  00000-0  18774-4 0  9995,2 54158  53.2160 225.2061 0001354 102.5376 257.5768 15.08838562 69660,6917.885,95.438,540.686,538.813,0.0
54158.0,STARLINK-5297,PAYLOAD,2024-01-31 21:21:09,15.08831767,0.0001425,53.2159,221.0428,105.3975,254.7174,1.9627e-05,2.4e-07,0.0,0 STARLINK-5297,1 54158U 22141B   24031.88969652  .00000024  00000-0  19627-4 0  9991,2 54158  53.2159 221.0428 0001425 105.3975 254.7174 15.08831767 69800,6917.906,95.438,540.756,538.785,0.0
54158.0,STARLINK-5297,PAYLOAD,2024-01-31 22:56:33,15.0883054,0.0001412,53.2161,220.7462,103.026,257.089,1.4352e-05,-6e-07,0.0,0 STARLINK-5297,1 54158U 22141B   24031.95593784 -.00000060  00000-0  14352-4 0  9999,2 54158  53.2161 220.7462 0001412 103.0260 257.0890 15.08830540 69815,6917.909,95.438,540.751,538.797,0.0
54158.0,STARLINK-5297,PAYLOAD,2024-02-01 18:01:10,15.08839402,0.0001387,53.2163,217.1783,101.2752,258.8396,6.7816e-05,7.92e-06,0.0,0 STARLINK-5297,1 54158U 22141B   24032.75081323  .00000792  00000-0  67816-4 0  9993,2 54158  53.2163 217.1783 0001387 101.2752 258.8396 15.08839402 69939,6917.882,95.438,540.707,538.788,0.0
54158.0,STARLINK-5297,PAYLOAD,2024-02-02 11:30:24,15.08838479,0.0001372,53.2163,213.9078,93.8597,266.2552,0.0001006,1.313e-05,0.0,0 STARLINK-5297,1 54158U 22141B   24033.47945394  .00001313  00000-0  10060-3 0  9998,2 54158  53.2163 213.9078 0001372  93.8597 266.2552 15.08838479 70041,6917.885,95.438,540.699,538.801,0.0
54158.0,STARLINK-5297,PAYLOAD,2024-02-02 19:27:20,15.08841594,0.0001337,53.2162,212.4207,87.6809,272.4336,7.3839e-05,8.87e-06,0.0,0 STARLINK-5297,1 54158U 22141B   24033.81065372  .00000887  00000-0  73839-4 0  9994,2 54158  53.2162 212.4207 0001337  87.6809 272.4336 15.08841594 70092,6917.876,95.437,540.665,538.816,0.0
54158.0,STARLINK-5297,PAYLOAD,2024-02-03 11:21:12,15.08838244,0.0001374,53.2163,209.4473,87.9049,272.21,3.3379e-05,2.43e-06,0.0,0 STARLINK-5297,1 54158U 22141B   24034.47305774  .00000243  00000-0  33379-4 0  9991,2 54158  53.2163 209.4473 0001374  87.9049 272.2100 15.08838244 70190,6917.886,95.438,540.701,538.8,0.0
54158.0,STARLINK-5297,PAYLOAD,2024-02-03 17:42:44,15.08839728,0.0001407,53.2164,208.2579,84.165,275.9503,1.4954e-05,-5e-07,0.0,0 STARLINK-5297,1 54158U 22141B   24034.73801787 -.00000050  00000-0  14954-4 0  9990,2 54158  53.2164 208.2579 0001407  84.1650 275.9503 15.08839728 70239,6917.881,95.438,540.72,538.773,0.0
54158.0,STARLINK-5297,PAYLOAD,2024-02-04 17:33:31,15.08845208,0.0001517,53.2165,203.7979,76.5203,283.5958,8.0263e-05,9.9e-06,0.0,0 STARLINK-5297,1 54158U 22141B   24035.73161165  .00000990  00000-0  80263-4 0  9998,2 54158  53.2165 203.7979 0001517  76.5203 283.5958 15.08845208 70380,6917.864,95.437,540.779,538.68,0.0
54158.0,STARLINK-5297,PAYLOAD,2024-02-04 20:44:17,15.08848494,0.0001366,53.2159,203.2018,87.6444,272.4704,9.8147e-05,1.275e-05,0.0,0 STARLINK-5297,1 54158U 22141B   24035.86408737  .00001275  00000-0  98147-4 0  9998,2 54158  53.2159 203.2018 0001366  87.6444 272.4704 15.08848494 70403,6917.854,95.437,540.664,538.774,0.0
54158.0,STARLINK-5297,PAYLOAD,2024-02-05 14:13:32,15.08840924,0.0001509,53.2164,199.9272,114.6366,245.4783,2.1782e-05,5.9e-07,0.0,0 STARLINK-5297,1 54158U 22141B   24036.59273292  .00000059  00000-0  21782-4 0  9995,2 54158  53.2164 199.9272 0001509 114.6366 245.4783 15.08840924 70514,6917.878,95.437,540.786,538.699,0.0
54158.0,STARLINK-5297,PAYLOAD,2024-02-05 17:24:18,15.08841884,0.0001524,53.2169,199.3329,110.0457,250.0699,2.7264e-05,1.46e-06,0.0,0 STARLINK-5297,1 54158U 22141B   24036.72521223  .00000146  00000-0  27264-4 0  9998,2 54158  53.2169 199.3329 0001524 110.0457 250.0699 15.08841884 70530,6917.875,95.437,540.794,538.685,0.0
54158.0,STARLINK-5297,PAYLOAD,2024-02-06 14:04:19,15.08842147,0.0001519,53.2166,195.4672,107.4648,252.6511,2.0755e-05,4.2e-07,0.0,0 STARLINK-5297,1 54158U 22141B   24037.58633230  .00000042  00000-0  20755-4 0  9998,2 54158  53.2166 195.4672 0001519 107.4648 252.6511 15.08842147 70669,6917.874,95.437,540.79,538.688,0.0
54158.0,STARLINK-5297,PAYLOAD,2024-02-06 15:39:42,15.08842287,0.0001521,53.2169,195.1695,109.024,251.0916,2.0808e-05,4.3e-07,0.0,0 STARLINK-5297,1 54158U 22141B   24037.65257198  .00000043  00000-0  20808-4 0  9991,2 54158  53.2169 195.1695 0001521 109.0240 251.0916 15.08842287 70671,6917.873,95.437,540.791,538.686,0.0
54158.0,STARLINK-5297,PAYLOAD,2024-02-07 10:44:20,15.08835496,0.0001391,53.2169,191.6053,95.2381,264.877,2.5244e-05,1.14e-06,0.0,0 STARLINK-5297,1 54158U 22141B   24038.44745817  .00000114  00000-0  25244-4 0  9997,2 54158  53.2169 191.6053 0001391  95.2381 264.8770 15.08835496 70794,6917.894,95.438,540.721,538.797,0.0
54158.0,STARLINK-5297,PAYLOAD,2024-02-07 13:55:06,15.08834772,0.0001383,53.2169,191.01,100.2309,259.8839,1.4535e-05,-5.7e-07,0.0,0 STARLINK-5297,1 54158U 22141B   24038.57993912 -.00000057  00000-0  14535-4 0  9990,2 54158  53.2169 191.0100 0001383 100.2309 259.8839 15.08834772 70818,6917.896,95.438,540.718,538.805,0.0
54158.0,STARLINK-5297,PAYLOAD,2024-02-07 17:05:53,15.08829556,0.0001257,53.2167,190.4177,87.1559,272.9577,0.00011567,1.553e-05,0.0,0 STARLINK-5297,1 54158U 22141B   24038.71242109  .00001553  00000-0  11567-3 0  9993,2 54158  53.2167 190.4177 0001257  87.1559 272.9577 15.08829556 70834,6917.912,95.438,540.647,538.908,0.0
54158.0,STARLINK-5297,PAYLOAD,2024-02-08 13:45:53,15.08839188,0.0001265,53.2172,186.5532,91.797,268.3167,5.6948e-05,6.19e-06,0.0,0 STARLINK-5297,1 54158U 22141B   24039.57353846  .00000619  00000-0  56948-4 0  9994,2 54158  53.2172 186.5532 0001265  91.7970 268.3167 15.08839188 70968,6917.883,95.438,540.623,538.873,0.0
54158.0,STARLINK-5297,PAYLOAD,2024-02-08 15:21:16,15.08841082,0.0001277,53.217,186.2561,93.4206,266.6932,7.4231e-05,8.94e-06,0.0,0 STARLINK-5297,1 54158U 22141B   24039.63977670  .00000894  00000-0  74231-4 0  9998,2 54158  53.2170 186.2561 0001277  93.4206 266.6932 15.08841082 70977,6917.877,95.437,540.625,538.859,0.0
54158.0,STARLINK-5297,PAYLOAD,2024-02-09 13:36:41,15.08834106,0.0001344,53.217,182.0912,95.7455,264.369,3.4905e-05,2.68e-06,0.0,0 STARLINK-5297,1 54158U 22141B   24040.56714462  .00000268  00000-0  34905-4 0  9999,2 54158  53.2170 182.0912 0001344  95.7455 264.3690 15.08834106 71119,6917.898,95.438,540.693,538.834,0.0
54158.0,STARLINK-5297,PAYLOAD,2024-02-09 18:22:50,15.08838697,0.0001344,53.2168,181.1976,98.7121,261.4023,8.6551e-05,1.09e-05,0.0,0 STARLINK-5297,1 54158U 22141B   24040.76586049  .00001090  00000-0  86551-4 0  9997,2 54158  53.2168 181.1976 0001344  98.7121 261.4023 15.08838697 71149,6917.884,95.438,540.679,538.82,0.0
54158.0,STARLINK-5297,PAYLOAD,2024-02-10 13:27:28,15.08842015,0.0001465,53.2177,177.6242,82.4373,277.6785,-6.027e-06,-3.84e-06,0.0,0 STARLINK-5297,1 54158U 22141B   24041.56074429 -.00000384  00000-0 -60270-5 0  9998,2 54158  53.2177 177.6242 0001465  82.4373 277.6785 15.08842015 71264,6917.874,95.437,540.753,538.726,0.0
54158.0,STARLINK-5297,PAYLOAD,2024-02-10 18:13:36,15.08849299,0.0001461,53.217,176.7327,84.1932,275.9226,7.0811e-05,8.39e-06,0.0,0 STARLINK-5297,1 54158U 22141B   24041.75945589  .00000839  00000-0  70811-4 0  9997,2 54158  53.2170 176.7327 0001461  84.1932 275.9226 15.08849299 71292,6917.852,95.437,540.728,538.706,0.0
54158.0,STARLINK-5297,PAYLOAD,2024-02-11 08:32:05,15.08839874,0.0001228,53.2166,174.0574,109.8317,250.2807,9.8035e-08,-2.86e-06,0.0,0 STARLINK-5297,1 54158U 22141B   24042.35562366 -.00000286  00000-0  98035-7 0  9990,2 54158  53.2166 174.0574 0001228 109.8317 250.2807 15.08839874 71384,6917.881,95.438,540.595,538.896,0.0
54158.0,STARLINK-5297,PAYLOAD,2024-02-11 14:53:37,15.08845612,0.0001626,53.2177,172.873,102.6262,257.4912,6.7177e-05,7.81e-06,0.0,0 STARLINK-5297,1 54158U 22141B   24042.62057813  .00000781  00000-0  67177-4 0  9995,2 54158  53.2177 172.8730 0001626 102.6262 257.4912 15.08845612 71426,6917.863,95.437,540.853,538.603,0.0
54158.0,STARLINK-5297,PAYLOAD,2024-02-12 14:44:24,15.08851622,0.0001572,53.2167,168.4138,80.3346,279.7824,5.0514e-05,5.16e-06,0.0,0 STARLINK-5297,1 54158U 22141B   24043.61417406  .00000516  00000-0  50514-4 0  9996,2 54158  53.2167 168.4138 0001572  80.3346 279.7824 15.08851622 71576,6917.845,95.437,540.797,538.622,0.0
54158.0,STARLINK-5297,PAYLOAD,2024-02-13 11:24:26,15.08835937,0.0001566,53.2177,164.5478,89.8281,270.2891,-4.756e-05,-1.045e-05,0.0,0 STARLINK-5297,1 54158U 22141B   24044.47530718 -.00001045  00000-0 -47560-4 0  9990,2 54158  53.2177 164.5478 0001566  89.8281 270.2891 15.08835937 71702,6917.893,95.438,540.841,538.674,0.0
